{
    "links": {
        "self": "http://www.neowsapp.com/rest/v1/neo/3648679?api_key=iIulBulltgU6a56xZRHN4H3l9WmuAYTsLGpBGhQ2"
    },
    "id": "3648679",
    "neo_reference_id": "3648679",
    "name": "(2013 SD21)",
    "designation": "2013 SD21",
    "nasa_jpl_url": "http://ssd.jpl.nasa.gov/sbdb.cgi?sstr=3648679",
    "absolute_magnitude_h": 25.3,
    "estimated_diameter": {
        "kilometers": {
            "estimated_diameter_min": 0.0231502122,
            "estimated_diameter_max": 0.0517654482
        },
        "meters": {
            "estimated_diameter_min": 23.150212221,
            "estimated_diameter_max": 51.7654482198
        },
        "miles": {
            "estimated_diameter_min": 0.0143848705,
            "estimated_diameter_max": 0.0321655483
        },
        "feet": {
            "estimated_diameter_min": 75.9521422633,
            "estimated_diameter_max": 169.8341531374
        }
    },
    "is_potentially_hazardous_asteroid": false,
    "close_approach_data": [
        {
            "close_approach_date": "2013-10-05",
            "close_approach_date_full": "2013-Oct-05 18:44",
            "epoch_date_close_approach": 1380998640000,
            "relative_velocity": {
                "kilometers_per_second": "8.8370732292",
                "kilometers_per_hour": "31813.4636252727",
                "miles_per_hour": "19767.6491064923"
            },
            "miss_distance": {
                "astronomical": "0.0332348841",
                "lunar": "12.9283699149",
                "kilometers": "4971867.871056867",
                "miles": "3089375.4388320846"
            },
            "orbiting_body": "Earth"
        }
    ],
    "orbital_data": {
        "orbit_id": "7",
        "orbit_determination_date": "2017-04-06 08:44:31",
        "first_observation_date": "2013-09-27",
        "last_observation_date": "2013-10-03",
        "data_arc_in_days": 6,
        "observations_used": 31,
        "orbit_uncertainty": "8",
        "minimum_orbit_intersection": ".0332069",
        "jupiter_tisserand_invariant": "3.392",
        "epoch_osculation": "2456563.5",
        "eccentricity": ".5552860978771982",
        "semi_major_axis": "2.255002398618907",
        "inclination": "7.86647564969619",
        "ascending_node_longitude": "183.470205931526",
        "orbital_period": "1236.855427410164",
        "perihelion_distance": "1.002830915986092",
        "perihelion_argument": "209.0923062725849",
        "aphelion_distance": "3.507173881251722",
        "perihelion_time": "2456587.875795527547",
        "mean_anomaly": "352.9051640188123",
        "mean_motion": ".2910606947440894",
        "equinox": "J2000",
        "orbit_class": {
            "orbit_class_type": "APO",
            "orbit_class_description": "Near-Earth asteroid orbits which cross the Earth’s orbit similar to that of 1862 Apollo",
            "orbit_class_range": "a (semi-major axis) > 1.0 AU; q (perihelion) < 1.017 AU"
        }
    },
    "is_sentry_object": false
}